[
  {
    "name": "SAPPHIRE",
    "line1": "1 39088U 13009C   25339.07090897  .00000355  00000+0  13903-3 0  9994",
    "line2": "2 39088  98.4155 158.2102 0012312 105.6386 254.6159 14.35158684668736",
    "catNr": 39088
  },
  {
    "name": "COSMOS 2558",
    "line1": "1 53323U 22089A   25339.79058130  .00000000  00000+0  00000+0 0  9990",
    "line2": "2 53323  97.2124  75.0990 0018170 151.6840 282.3647 15.49174351    18",
    "catNr": 53323
  },
  {
    "name": "COSMOS 2576",
    "line1": "1 59773U 24092A   25339.73865198  .00023418  00000+0  88883-3 0  9992",
    "line2": "2 59773  97.4260  92.3696 0013384 176.4423 183.6914 15.26759589 86915",
    "catNr": 59773
  },
  {
    "name": "STARLINK-5241",
    "line1": "1 54204U 22141AZ  25339.22915139  .00000832  00000+0  70356-4 0  9996",
    "line2": "2 54204  53.2177  57.7396 0001130  87.4279 272.6842 15.08836189171741",
    "catNr": 54204
  },
  {
    "name": "LUCH-5X (OLYMP-K 2)",
    "line1": "1 55841U 23031A   25339.72568997  .00000043  00000+0  00000+0 0  9992",
    "line2": "2 55841   0.0457  85.8251 0000635 342.9974 329.1924  1.00270256  9992",
    "catNr": 55841
  },
  {
    "name": "YAOGAN-41",
    "line1": "1 58582U 23197A   25339.30977427 -.00000349  00000+0  00000+0 0  9996",
    "line2": "2 58582   3.4954 310.5421 0010195 200.6161 157.8824  1.00274482  7373",
    "catNr": 58582
  },
  {
    "name": "STARLINK-3075",
    "line1": "1 49409U 21104B   25339.26830546 -.00000248  00000+0  25403-5 0  9993",
    "line2": "2 49409  53.2181 292.9929 0001419  80.2383 279.8769 15.08846784224387",
    "catNr": 49409
  },
  {
    "name": "STARLINK-3147",
    "line1": "1 49410U 21104C   25339.26190716  .00001024  00000+0  82426-4 0  9992",
    "line2": "2 49410  53.2185 293.0314 0001310  82.3060 277.8081 15.08838789224378",
    "catNr": 49410
  },
  {
    "name": "STARLINK-3162",
    "line1": "1 49411U 21104D   25339.12201514  .00000838  00000+0  70736-4 0  9990",
    "line2": "2 49411  53.2197 283.6404 0001681 114.9054 245.2113 15.08845390224497",
    "catNr": 49411
  },
  {
    "name": "MALLIGYONG-1",
    "line1": "1 58400U 23179A   25339.28214047  .00007762  00000+0  35158-3 0  9995",
    "line2": "2 58400  97.3261 221.1421 0008795   2.3598 357.7678 15.21106665113265",
    "catNr": 58400
  },
  {
    "name": "WORLDVIEW-3 (WV-3)",
    "line1": "1 40115U 14048A   25339.23030350  .00002626  00000+0  31049-3 0  9991",
    "line2": "2 40115  97.8625  51.6052 0004234 211.1891 148.9073 14.85482171613121",
    "catNr": 40115
  },
  {
    "name": "LEGION 1",
    "line1": "1 59625U 24081A   25339.27544622  .00009517  00000+0  49345-3 0  9995",
    "line2": "2 59625  97.5228  53.9785 0004540 348.4225  11.6902 15.16367704 88140",
    "catNr": 59625
  },
  {
    "name": "LEGION 2",
    "line1": "1 59626U 24081B   25339.24254820  .00009665  00000+0  50087-3 0  9990",
    "line2": "2 59626  97.5229  54.0326 0006138 324.1017  35.9802 15.16376685 88146",
    "catNr": 59626
  },
  {
    "name": "LEGION 3",
    "line1": "1 60452U 24146A   25339.30854649  .00009661  00000+0  51156-3 0  9997",
    "line2": "2 60452  45.0024 349.9662 0013988 156.9943 203.1564 15.15641012 72601",
    "catNr": 60452
  },
  {
    "name": "LEGION 4",
    "line1": "1 60453U 24146B   25339.30939475  .00009757  00000+0  51612-3 0  9992",
    "line2": "2 60453  45.0389  81.6898 0009948 272.3108  87.6632 15.15704227 71455",
    "catNr": 60453
  },
  {
    "name": "PLEIADES NEO 3",
    "line1": "1 48268U 21034A   25339.29990288 -.00000065  00000+0 -16246-5 0  9993",
    "line2": "2 48268  97.8948  51.8474 0001245  95.0794 265.0561 14.81670391248942",
    "catNr": 48268
  },
  {
    "name": "PLEIADES NEO 4",
    "line1": "1 49070U 21073E   25339.33365720 -.00000030  00000+0  28577-5 0  9991",
    "line2": "2 49070  97.8947  51.8766 0001347  97.5499 262.5867 14.81673096232667",
    "catNr": 49070
  },
  {
    "name": "USA 224",
    "line1": "1 37348U 11002A   24262.08462643 0.00057000  00000-0  53026-3 0    02",
    "line2": "2 37348  97.8772  37.0228 0503871 200.0756 159.9242 14.84682940    01",
    "catNr": 37348
  },
  {
    "name": "USA 245",
    "line1": "1 39232U 13043A   25288.80624759 0.00035000  00000-0  34137-3 0    08",
    "line2": "2 39232  97.8940 349.7905 0521296 186.2079 173.7919 14.80106298    09",
    "catNr": 39232
  },
  {
    "name": "USA 314",
    "line1": "1 48247U 21032A   25228.99004365 0.00000700  00000-0  93682-4 0    00",
    "line2": "2 48247  98.0830 342.8275 0154125 107.3157 252.6841 14.71511175    09",
    "catNr": 48247
  },
  {
    "name": "USA 326",
    "line1": "1 51445U 22009A   25243.92803368 0.00008000  00000-0  34973-3 0    07",
    "line2": "2 51445  97.4013 339.7018 0003778  46.4969 313.5029 15.22124480    01",
    "catNr": 51445
  },
  {
    "name": "OTV 8",
    "line1": "1 65271U 25183A   25282.36302114 0.00010000  00000-0  55866-4 0    07",
    "line2": "2 65271  48.7951   8.5514 0002000  85.4867 277.3551 15.78566782    05",
    "catNr": 65271
  }
]